[{"OBJECT_NAME":"STARLINK-33790","OBJECT_ID":"2025-102H","EPOCH":"2026-03-09T12:16:56.197056","MEAN_MOTION":14.98323551,"ECCENTRICITY":0.00028476,"INCLINATION":70.0019,"RA_OF_ASC_NODE":114.9764,"ARG_OF_PERICENTER":259.5585,"MEAN_ANOMALY":100.5253,"EPHEMERIS_TYPE":0,"CLASSIFICATION_TYPE":"U","NORAD_CAT_ID":64029,"ELEMENT_SET_NO":999,"REV_AT_EPOCH":4597,"BSTAR":0.00030189181,"MEAN_MOTION_DOT":3.51e-5,"MEAN_MOTION_DDOT":0},{"OBJECT_NAME":"COSMOS 375 DEB","OBJECT_ID":"1970-091J","EPOCH":"2026-03-09T16:03:50.760864","MEAN_MOTION":13.03064805,"ECCENTRICITY":0.09651875,"INCLINATION":62.8397,"RA_OF_ASC_NODE":179.4498,"ARG_OF_PERICENTER":56.3658,"MEAN_ANOMALY":312.5686,"EPHEMERIS_TYPE":0,"CLASSIFICATION_TYPE":"U","NORAD_CAT_ID":4629,"ELEMENT_SET_NO":999,"REV_AT_EPOCH":61685,"BSTAR":0.00010398577,"MEAN_MOTION_DOT":2.31e-6,"MEAN_MOTION_DDOT":0}]
